     2              NAVIGATION DATA                         RINEX VERSION / TYPE
CCRINEXN V1.6.0 UX  CDDIS               28-SEP-19 19:31     PGM / RUN BY / DATE 
IGS BROADCAST EPHEMERIS FILE                                COMMENT             
    0.8382D-08  0.1490D-07 -0.5960D-07 -0.5960D-07          ION ALPHA           
    0.8397D+05  0.1638D+05 -0.1311D+06 -0.6554D+05          ION BETA            
    0.372529029846D-08 0.710542735760D-14    61440     2073 DELTA-UTC: A0,A1,T,W
    18                                                      LEAP SECONDS        
                                                            END OF HEADER       
 5 19  9 27 15 59 44.0-0.179000198841D-05-0.341060513165D-12 0.000000000000D+00
    0.900000000000D+01-0.127093750000D+03 0.509735518245D-08 0.478631041818D-01
   -0.647082924843D-05 0.591660768259D-02 0.664591789246D-05 0.515377036285D+04
    0.489584000000D+06 0.316649675369D-07 0.218614885717D+01 0.782310962677D-07
    0.950556721086D+00 0.242937500000D+03 0.790343187846D+00-0.861714465295D-08
   -0.629669085388D-09 0.100000000000D+01 0.207200000000D+04 0.000000000000D+00
    0.200000000000D+01 0.000000000000D+00-0.111758708954D-07 0.900000000000D+01
    0.482418000000D+06 0.400000000000D+01 0.000000000000D+00 0.000000000000D+00
 9 19  9 27 15 59 44.0-0.419812276959D-04-0.977706804406D-11 0.000000000000D+00
    0.300000000000D+01 0.235000000000D+02 0.440446917811D-08-0.166380443922D+00
    0.115670263767D-05 0.144645664841D-02 0.138692557812D-04 0.515359988022D+04
    0.489584000000D+06-0.968575477600D-07-0.303702676420D+01 0.372529029846D-07
    0.953093001178D+00 0.107281250000D+03 0.166703663237D+01-0.793818780024D-08
    0.235724104569D-09 0.100000000000D+01 0.207200000000D+04 0.000000000000D+00
    0.200000000000D+01 0.000000000000D+00 0.139698386192D-08 0.300000000000D+01
    0.485748000000D+06 0.400000000000D+01 0.000000000000D+00 0.000000000000D+00
19 19  9 27 15 59 44.0-0.261486507952D-03 0.522959453519D-11 0.000000000000D+00
    0.880000000000D+02 0.954375000000D+02 0.376515683389D-08 0.203994282744D+01
    0.485964119434D-05 0.936096161604D-02 0.129248946905D-04 0.515365625382D+04
    0.489584000000D+06 0.150874257088D-06 0.220123340632D+00-0.109896063805D-06
    0.982516548158D+00 0.139781250000D+03 0.150792557175D+01-0.756888670308D-08
    0.380730144653D-09 0.100000000000D+01 0.207200000000D+04 0.000000000000D+00
    0.200000000000D+01 0.000000000000D+00-0.153668224812D-07 0.880000000000D+02
    0.486846000000D+06 0.400000000000D+01 0.000000000000D+00 0.000000000000D+00
20 19  9 27 15 59 44.0 0.527018215507D-03 0.113686837722D-12 0.000000000000D+00
    0.120000000000D+02-0.117812500000D+03 0.554915979833D-08 0.307307198603D+01
   -0.598840415478D-05 0.488197873347D-02 0.453554093838D-05 0.515362394905D+04
    0.489584000000D+06 0.167638063431D-07 0.208882163857D+01 0.782310962677D-07
    0.931542117120D+00 0.276687500000D+03 0.243642529325D+01-0.874714967125D-08
   -0.476448436260D-09 0.100000000000D+01 0.207200000000D+04 0.000000000000D+00
    0.200000000000D+01 0.000000000000D+00-0.884756445885D-08 0.120000000000D+02
    0.482400000000D+06 0.000000000000D+00 0.000000000000D+00 0.000000000000D+00
27 19  9 27 15 59 44.0-0.693080946803D-04-0.123918653117D-10 0.000000000000D+00
    0.110000000000D+02 0.582500000000D+02 0.379837250318D-08-0.636633912735D+00
    0.316835939884D-05 0.720805500168D-02 0.126231461763D-04 0.515366211128D+04
    0.489584000000D+06 0.102445483208D-06 0.117268431947D+00 0.707805156708D-07
    0.978937902362D+00 0.148062500000D+03 0.511031464706D+00-0.778282418587D-08
    0.223223583873D-09 0.100000000000D+01 0.207200000000D+04 0.000000000000D+00
    0.200000000000D+01 0.000000000000D+00 0.139698386192D-08 0.110000000000D+02
    0.488748000000D+06 0.400000000000D+01 0.000000000000D+00 0.000000000000D+00
 2 19  9 27 16  0  0.0-0.314044300467D-03-0.807176547823D-11 0.000000000000D+00
    0.130000000000D+02 0.827500000000D+02 0.517057251796D-08-0.254972324264D+01
    0.428780913353D-05 0.191718428396D-01 0.211596488953D-05 0.515353825951D+04
    0.489600000000D+06 0.249594449997D-06 0.110104934948D+01 0.651925802231D-07
    0.955953614597D+00 0.332625000000D+03-0.171195089893D+01-0.840927885165D-08
    0.558237538548D-09 0.100000000000D+01 0.207200000000D+04 0.000000000000D+00
    0.200000000000D+01 0.000000000000D+00-0.204890966415D-07 0.130000000000D+02
    0.482418000000D+06 0.400000000000D+01 0.000000000000D+00 0.000000000000D+00
 3 19  9 27 16  0  0.0-0.156131573021D-04-0.432009983342D-11 0.000000000000D+00
    0.690000000000D+02-0.115156250000D+03 0.460876340207D-08 0.233450595432D+01
   -0.609271228313D-05 0.255782960448D-02 0.747479498386D-05 0.515370655632D+04
    0.489600000000D+06-0.819563865662D-07 0.221468673160D+01-0.111758708954D-07
    0.963698668638D+00 0.235468750000D+03 0.751956208669D+00-0.819426989566D-08
   -0.544665544649D-09 0.100000000000D+01 0.207200000000D+04 0.000000000000D+00
    0.200000000000D+01 0.000000000000D+00 0.186264514923D-08 0.690000000000D+02
    0.482418000000D+06 0.400000000000D+01 0.000000000000D+00 0.000000000000D+00
 4 19  9 27 16  0  0.0 0.174320302904D-04-0.483169060317D-10 0.000000000000D+00
    0.700000000000D+02 0.458125000000D+02 0.428267839074D-08-0.524491886598D+00
    0.258721411228D-05 0.147305476712D-01 0.128280371427D-04 0.515368471909D+04
    0.489600000000D+06 0.141561031342D-06 0.137366193625D-01 0.204890966415D-06
    0.959089770099D+00 0.136000000000D+03 0.681959325109D+00-0.810998067039D-08
    0.110004582132D-09 0.100000000000D+01 0.207200000000D+04 0.000000000000D+00
    0.280000000000D+01 0.630000000000D+02-0.558793544769D-08 0.700000000000D+02
    0.482418000000D+06 0.400000000000D+01 0.000000000000D+00 0.000000000000D+00
 6 19  9 27 16  0  0.0-0.714124180377D-04-0.127329258248D-10 0.000000000000D+00
    0.700000000000D+01 0.572187500000D+02 0.481091467962D-08-0.247227831398D+01
    0.308267772198D-05 0.139265100006D-02 0.250898301601D-05 0.515365826416D+04
    0.489600000000D+06-0.316649675369D-07 0.116406605547D+01-0.558793544769D-08
    0.976450527621D+00 0.339718750000D+03-0.116136635719D+01-0.847856745208D-08
    0.387873299337D-09 0.100000000000D+01 0.207200000000D+04 0.000000000000D+00
    0.200000000000D+01 0.000000000000D+00 0.419095158577D-08 0.700000000000D+01
    0.482418000000D+06 0.400000000000D+01 0.000000000000D+00 0.000000000000D+00
 7 19  9 27 16  0  0.0-0.115218106657D-03-0.795807864051D-11 0.000000000000D+00
    0.700000000000D+01 0.450937500000D+02 0.507306845652D-08 0.281195140051D+01
    0.214949250221D-05 0.131684613880D-01 0.367686152458D-05 0.515372216415D+04
    0.489600000000D+06-0.204890966415D-07-0.196179431857D+01-0.163912773132D-06
    0.954420101943D+00 0.304843750000D+03-0.242709212460D+01-0.834391898629D-08
    0.280725979078D-09 0.100000000000D+01 0.207200000000D+04 0.000000000000D+00
    0.200000000000D+01 0.000000000000D+00-0.111758708954D-07 0.700000000000D+01
    0.486588000000D+06 0.400000000000D+01 0.000000000000D+00 0.000000000000D+00
 8 19  9 27 16  0  0.0-0.795954838395D-05-0.136424205266D-11 0.000000000000D+00
    0.520000000000D+02 0.618125000000D+02 0.397409410840D-08-0.447882371939D+00
    0.315718352795D-05 0.447539810557D-02 0.129844993353D-04 0.515356713677D+04
    0.489600000000D+06 0.316649675369D-07 0.104946536290D+00-0.931322574615D-07
    0.970601548536D+00 0.133031250000D+03-0.233249648127D+00-0.781925427476D-08
    0.221794952936D-09 0.100000000000D+01 0.207200000000D+04 0.000000000000D+00
    0.200000000000D+01 0.000000000000D+00 0.512227416039D-08 0.520000000000D+02
    0.482418000000D+06 0.400000000000D+01 0.000000000000D+00 0.000000000000D+00
 9 19  9 27 16  0  0.0-0.419812276959D-04-0.977706804406D-11 0.000000000000D+00
    0.890000000000D+02 0.235000000000D+02 0.440446917811D-08-0.164040115855D+00
    0.115670263767D-05 0.144645327237D-02 0.138692557812D-04 0.515359987640D+04
    0.489600000000D+06-0.968575477600D-07-0.303702689439D+01 0.372529029846D-07
    0.953093015807D+00 0.107281250000D+03 0.166703015457D+01-0.793818780024D-08
    0.235724104569D-09 0.100000000000D+01 0.207200000000D+04 0.000000000000D+00
    0.280000000000D+01 0.000000000000D+00 0.139698386192D-08 0.890000000000D+02
    0.482418000000D+06 0.400000000000D+01 0.000000000000D+00 0.000000000000D+00
10 19  9 27 16  0  0.0-0.709937885404D-04-0.156887836056D-10 0.000000000000D+00
    0.188000000000D+03-0.119500000000D+03 0.478519932276D-08 0.147652504605D+01
   -0.611133873463D-05 0.485247001052D-02 0.648014247417D-05 0.515366583633D+04
    0.489600000000D+06 0.111758708954D-07 0.221151446689D+01 0.502914190292D-07
    0.963690761566D+00 0.258437500000D+03-0.273701419140D+01-0.839677833095D-08
   -0.579309844866D-09 0.100000000000D+01 0.207200000000D+04 0.000000000000D+00
    0.200000000000D+01 0.000000000000D+00 0.186264514923D-08 0.188000000000D+03
    0.482418000000D+06 0.400000000000D+01 0.000000000000D+00 0.000000000000D+00
11 19  9 27 16  0  0.0-0.494846142828D-03 0.111413100967D-10 0.000000000000D+00
    0.390000000000D+02 0.135937500000D+03 0.574952520509D-08 0.269264489547D+01
    0.690668821335D-05 0.166433232371D-01 0.598467886448D-05 0.515373338890D+04
    0.489600000000D+06 0.277534127235D-06 0.713502884693D+00 0.875443220139D-07
    0.910711942579D+00 0.233062500000D+03 0.195057937207D+01-0.861285876014D-08
    0.441089801732D-09 0.100000000000D+01 0.207200000000D+04 0.000000000000D+00
    0.200000000000D+01 0.000000000000D+00-0.121071934700D-07 0.390000000000D+02
    0.482418000000D+06 0.400000000000D+01 0.000000000000D+00 0.000000000000D+00
